UWE-3                   
1 39446U 13066AG  24366.82204350  .00013531  00000+0  13607-2 0  9998
2 39446  97.8065 313.1254 0054330 289.3921  70.1429 14.90232085598099
BRITE-CA1 (TORONTO)     
1 40020U 14033L   24366.81738212  .00005121  00000+0  80422-3 0  9997
2 40020  97.9021 137.5091 0081266 179.8689 180.2553 14.70809683563906
DUCHIFAT-1              
1 40021U 14033M   24366.41814543  .00034985  00000+0  16974-2 0  9996
2 40021  98.0991   2.0657 0011499 138.7454 221.4649 15.18350900573938
NANOSATC-BR1            
1 40024U 14033Q   24366.40057981  .00023730  00000+0  13952-2 0  9992
2 40024  98.0820 348.0874 0003803 203.2725 156.8332 15.11668900572951
QB50P1                  
1 40025U 14033R   24366.54027172  .00019968  00000+0  13736-2 0  9995
2 40025  98.0667 334.9370 0009878 232.4669 127.5660 15.05906920572516
QB50P2                  
1 40032U 14033Y   24366.83455882  .00018397  00000+0  13245-2 0  9998
2 40032  98.0264 325.4761 0009018 168.2118 191.9320 15.04226241572324
PERSEUS-M2              
1 40037U 14033AD  24366.88036011  .00005935  00000+0  58318-3 0  9992
2 40037  97.9430 298.7630 0011128 262.7127  97.2827 14.92491894571293
PERSEUS-M1              
1 40039U 14033AF  24366.79377286  .00006336  00000+0  62372-3 0  9997
2 40039  97.9197 294.1432 0010899 262.4961  97.5019 14.92391376571135
POLYITAN-1              
1 40042U 14033AJ  24366.68931724  .00029943  00000+0  17699-2 0  9992
2 40042  98.0912 340.5614 0010602 175.4266 184.7061 15.11381807572572
TIGRISAT                
1 40043U 14033AK  24366.88469199  .00006493  00000+0  81612-3 0  9999
2 40043  97.7120 161.6716 0053387  19.8727 340.4550 14.81404342566703
AEROCUBE 6A             
1 40045U 14033AM  24366.91004643  .00015572  00000+0  16390-2 0  9992
2 40045  97.6762 173.4310 0046030 351.4054   8.6370 14.88680050567154
AEROCUBE 6B             
1 40046U 14033AN  24366.88864687  .00016735  00000+0  17187-2 0  9998
2 40046  97.6738 172.3186 0044483 345.9910  14.0071 14.89703756567223
CANX-4                  
1 40055U 14034C   24366.64405022  .00004647  00000+0  62925-3 0  9997
2 40055  98.3760 209.6642 0012028 281.8535  78.1326 14.79437493565737
CANX-5                  
1 40056U 14034D   24366.85073936  .00004750  00000+0  64282-3 0  9999
2 40056  98.3764 209.8931 0012039 281.3989  78.5868 14.79451101556574
UKUBE-1                 
1 40074U 14037F   24366.27689761  .00020086  00000+0  15977-2 0  9993
2 40074  98.3678 309.3963 0003271  94.0291 266.1305 15.00452365568260
BRITE-PL2 (HEWELIUSZ)   
1 40119U 14049B   24366.86399829  .00006393  00000+0  64812-3 0  9992
2 40119  97.8868 106.0084 0016260  74.3660 285.9351 14.91148914562012
AEROCUBE 5C             
1 40965U 15058B   24366.87474220  .00013896  00000+0  11644-2 0  9992
2 40965  64.7696 113.2492 0184947 249.2149 108.9062 14.86257925286382
AEROCUBE 7              
1 40966U 15058C   24365.58396905  .00017549  00000+0  13922-2 0  9993
2 40966  64.7663 108.8343 0178379 249.3075 108.8836 14.88909159286308
FOX-1A (AO-85)          
1 40967U 15058D   25001.07932343  .00014613  00000+0  12524-2 0  9994
2 40967  64.7767 127.2080 0182443 244.7605 113.4498 14.85715402 34357
SINOD-D 1               
1 40968U 15058E   24366.59299824  .00018637  00000+0  15037-2 0  9997
2 40968  64.7772 119.1796 0174513 243.9381 114.3677 14.88735088 37154
SNAP-3 ALICE            
1 40970U 15058G   24366.42722691  .00046161  00000+0  23826-2 0  9993
2 40970  64.7677  62.0400 0128072 243.1674 115.6305 15.09143321 35400
LMRST-SAT               
1 40971U 15058H   24366.59323510  .00012950  00000+0  11096-2 0  9994
2 40971  64.7768 124.2939 0184101 246.2906 111.8794 14.85590153 34284
SNAP-3 EDDIE            
1 40972U 15058J   24366.84797920  .00055219  00000+0  28083-2 0  9992
2 40972  64.7647  53.6530 0127981 244.0476 114.7414 15.09589924 37571
PROPCUBE 3              
1 40973U 15058K   24366.81524759  .00016103  00000+0  13049-2 0  9993
2 40973  64.7709 109.3389 0179738 247.7802 110.4157 14.88021740 35390
BISONSAT                
1 40974U 15058L   24366.59387521  .00031514  00000+0  20057-2 0  9993
2 40974  64.7666  75.6226 0150932 245.9811 112.5446 14.99650723 35275
SNAP-3 JIMI             
1 40975U 15058M   24366.86240945  .00023812  00000+0  17478-2 0  9997
2 40975  64.7690  93.5714 0167748 246.9146 111.4209 14.92817304 34478
PROPCUBE 1 (FLORA)      
1 40976U 15058N   24366.68179718  .00013088  00000+0  11653-2 0  9990
2 40976  64.7751 140.5899 0183224 247.6434 110.5169 14.84288629 37076
SINOD-D 3               
1 40977U 15058P   24366.61848819  .00016678  00000+0  13991-2 0  9994
2 40977  64.7738 131.7838 0175272 246.9444 111.3104 14.87285044 35341
